{
  "version": 1,
  "fetchedAt": "2026-06-21T12:32:46.387Z",
  "source": "celestrak-gp",
  "counts": {
    "station": 24,
    "satellite": 520,
    "debris": 250
  },
  "objects": [
    {
      "id": "48274",
      "name": "CSS (TIANHE)",
      "displayName": "中国空间站 天宫（天和核心舱）",
      "noradId": 48274,
      "line1": "1 48274U 21035A   26171.43213816  .00020661  00000+0  24268-3 0  9990",
      "line2": "2 48274  41.4693 302.2526 0007384 105.8714 254.2939 15.60937952293670",
      "category": "station",
      "highlight": true,
      "operator": "中国载人航天"
    },
    {
      "id": "66515",
      "name": "SZ-21 MODULE",
      "noradId": 66515,
      "line1": "1 66515U 25246C   26171.38315940  .00041738  00000+0  25384-3 0  9999",
      "line2": "2 66515  41.4727 287.4171 0005787  13.1539 346.9456 15.76651737 34247",
      "category": "station"
    },
    {
      "id": "31598",
      "name": "COSMO-SKYMED 1",
      "noradId": 31598,
      "line1": "1 31598U 07023A   26172.14522127  .00002324  00000+0  20660-3 0  9997",
      "line2": "2 31598  97.8853   4.0340 0001591  96.8472 263.2930 14.97116981 30387",
      "category": "satellite"
    },
    {
      "id": "31792",
      "name": "COSMOS 2428",
      "noradId": 31792,
      "line1": "1 31792U 07029A   26170.90473080 -.00000091  00000+0 -23180-4 0  9996",
      "line2": "2 31792  70.9350 348.7715 0007125 129.7553 230.4196 14.12927887978536",
      "category": "satellite"
    },
    {
      "id": "31793",
      "name": "SL-16 R/B",
      "noradId": 31793,
      "line1": "1 31793U 07029B   26171.35404384 -.00000012  00000+0  18759-4 0  9996",
      "line2": "2 31793  70.9771 316.5706 0002390 262.9025 119.5421 14.14855736979893",
      "category": "satellite"
    },
    {
      "id": "33504",
      "name": "KORONAS-FOTON",
      "noradId": 33504,
      "line1": "1 33504U 09003A   26171.44475332  .00010047  00000+0  20622-3 0  9992",
      "line2": "2 33504  82.4290 168.8611 0011982 137.0460 223.1726 15.45780361961600",
      "category": "satellite"
    },
    {
      "id": "37731",
      "name": "CZ-2C R/B",
      "noradId": 37731,
      "line1": "1 37731U 11030B   26171.42757175  .00000955  00000+0  12584-3 0  9992",
      "line2": "2 37731  97.8654 126.7551 0052789  17.5996  94.3487 14.81478072805300",
      "category": "satellite"
    },
    {
      "id": "38341",
      "name": "H-2A R/B",
      "noradId": 38341,
      "line1": "1 38341U 12025E   26171.43489571  .00001559  00000+0  14369-3 0  9992",
      "line2": "2 38341  98.4832 146.8481 0043436 338.4525  21.4864 14.95733305763570",
      "category": "satellite"
    },
    {
      "id": "39358",
      "name": "SHIJIAN-16 (SJ-16)",
      "noradId": 39358,
      "line1": "1 39358U 13057A   26172.19400162  .00001102  00000+0  10968-3 0  9995",
      "line2": "2 39358  74.9732 349.0933 0016720 221.4918 138.5002 14.92612286686949",
      "category": "satellite"
    },
    {
      "id": "39679",
      "name": "SL-4 R/B",
      "noradId": 39679,
      "line1": "1 39679U 14021B   26171.36909396  .00008010  00000+0  16837-3 0  9990",
      "line2": "2 39679  51.6042 195.1816 0091103 117.5578 243.4698 15.42008265672108",
      "category": "satellite"
    },
    {
      "id": "39766",
      "name": "ALOS-2",
      "noradId": 39766,
      "line1": "1 39766U 14029A   26172.19713878  .00000862  00000+0  12234-3 0  9999",
      "line2": "2 39766  97.9219 269.3033 0001621  92.8155 267.3242 14.79466436652173",
      "category": "satellite"
    },
    {
      "id": "41038",
      "name": "YAOGAN-29",
      "noradId": 41038,
      "line1": "1 41038U 15069A   26172.15842579 -.00000042  00000+0  14580-5 0  9995",
      "line2": "2 41038  98.0023 200.7978 0002378  47.7090 312.4324 14.83086100571216",
      "category": "satellite"
    },
    {
      "id": "41337",
      "name": "ASTRO-H (HITOMI)",
      "noradId": 41337,
      "line1": "1 41337U 16012A   26171.07394254  .00001943  00000+0  10927-3 0  9997",
      "line2": "2 41337  30.9996  55.5433 0009776 282.4746  77.4798 15.10521114567723",
      "category": "satellite"
    },
    {
      "id": "42758",
      "name": "HXMT (HUIYAN)",
      "noradId": 42758,
      "line1": "1 42758U 17034A   26172.21258884  .00002165  00000+0  11348-3 0  9990",
      "line2": "2 42758  43.0126 160.6256 0031150 173.0127 187.1161 15.18495415498279",
      "category": "satellite"
    },
    {
      "id": "43641",
      "name": "SAOCOM 1A",
      "noradId": 43641,
      "line1": "1 43641U 18076A   26172.18668333 -.00000337  00000+0 -35748-4 0  9991",
      "line2": "2 43641  97.8886 358.8764 0001556  79.7137 280.4252 14.82148479416695",
      "category": "satellite"
    },
    {
      "id": "43682",
      "name": "H-2A R/B",
      "noradId": 43682,
      "line1": "1 43682U 18084L   26171.43084301  .00017446  00000+0  36520-3 0  9994",
      "line2": "2 43682  98.8570  51.0288 0023158  29.5846 330.6703 15.45261190421620",
      "category": "satellite"
    },
    {
      "id": "46265",
      "name": "SAOCOM 1B",
      "noradId": 46265,
      "line1": "1 46265U 20059A   26172.15032988  .00000706  00000+0  95294-4 0  9998",
      "line2": "2 46265  97.8890 357.9358 0001633  84.4484 275.6915 14.82150069314077",
      "category": "satellite"
    },
    {
      "id": "48865",
      "name": "COSMOS 2550",
      "noradId": 48865,
      "line1": "1 48865U 21056A   26172.19736497  .00005439  00000+0  17106-3 0  9997",
      "line2": "2 48865  67.1428  87.7756 0008371 268.5954  91.4242 15.33824835279337",
      "category": "satellite"
    },
    {
      "id": "52794",
      "name": "CZ-2C R/B",
      "noradId": 52794,
      "line1": "1 52794U 22058K   26171.31288139  .00034149  00000+0  37678-3 0  9990",
      "line2": "2 52794  50.1848 147.2516 0032400 280.9513  78.7816 15.62055000226133",
      "category": "satellite"
    },
    {
      "id": "54039",
      "name": "CZ-2C R/B",
      "noradId": 54039,
      "line1": "1 54039U 22132E   26170.95396000  .00054114  00000+0  41476-3 0  9998",
      "line2": "2 54039  97.2906 178.1016 0015540  75.9448 284.3542 15.71789278206384",
      "category": "satellite"
    },
    {
      "id": "54149",
      "name": "GSLV R/B",
      "noradId": 54149,
      "line1": "1 54149U 22138AN  26171.39262727  .00001845  00000+0  15597-3 0  9991",
      "line2": "2 54149  87.3806 131.9079 0023267 132.8603 227.4588 14.97268932199297",
      "category": "satellite"
    },
    {
      "id": "57800",
      "name": "XRISM",
      "noradId": 57800,
      "line1": "1 57800U 23137A   26171.16040668  .00004151  00000+0  22709-3 0  9997",
      "line2": "2 57800  31.0032 340.3423 0007922 353.3613   6.6920 15.12489019153310",
      "category": "satellite"
    },
    {
      "id": "59588",
      "name": "ACS3",
      "noradId": 59588,
      "line1": "1 59588U 24077B   26171.36336138  .00040774  00000+0  29681-1 0  9993",
      "line2": "2 59588  97.1691  89.4458 0082058  61.6026 299.3382 13.94333623108486",
      "category": "satellite"
    },
    {
      "id": "66004",
      "name": "CZ-8A R/B",
      "noradId": 66004,
      "line1": "1 66004U 25231K   26171.33611209 -.00000031  00000+0  47222-4 0  9996",
      "line2": "2 66004  50.0053  25.9191 0116482 235.0958 123.8966 14.30155599 35399",
      "category": "satellite"
    }
  ]
}